{
    "links": {
        "self": "http://www.neowsapp.com/rest/v1/neo/3669247?api_key=iIulBulltgU6a56xZRHN4H3l9WmuAYTsLGpBGhQ2"
    },
    "id": "3669247",
    "neo_reference_id": "3669247",
    "name": "(2014 HC124)",
    "designation": "2014 HC124",
    "nasa_jpl_url": "http://ssd.jpl.nasa.gov/sbdb.cgi?sstr=3669247",
    "absolute_magnitude_h": 23.6,
    "estimated_diameter": {
        "kilometers": {
            "estimated_diameter_min": 0.0506471459,
            "estimated_diameter_max": 0.1132504611
        },
        "meters": {
            "estimated_diameter_min": 50.6471458835,
            "estimated_diameter_max": 113.2504610618
        },
        "miles": {
            "estimated_diameter_min": 0.0314706677,
            "estimated_diameter_max": 0.0703705522
        },
        "feet": {
            "estimated_diameter_min": 166.1651821003,
            "estimated_diameter_max": 371.5566426699
        }
    },
    "is_potentially_hazardous_asteroid": false,
    "close_approach_data": [
        {
            "close_approach_date": "2014-04-03",
            "close_approach_date_full": "2014-Apr-03 20:04",
            "epoch_date_close_approach": 1396555440000,
            "relative_velocity": {
                "kilometers_per_second": "13.9516875897",
                "kilometers_per_hour": "50226.0753229841",
                "miles_per_hour": "31208.5299694397"
            },
            "miss_distance": {
                "astronomical": "0.0707088524",
                "lunar": "27.5057435836",
                "kilometers": "10577893.709184388",
                "miles": "6572798.3661770344"
            },
            "orbiting_body": "Earth"
        }
    ],
    "orbital_data": {
        "orbit_id": "12",
        "orbit_determination_date": "2017-04-06 08:41:23",
        "first_observation_date": "2014-04-23",
        "last_observation_date": "2014-04-28",
        "data_arc_in_days": 5,
        "observations_used": 21,
        "orbit_uncertainty": "9",
        "minimum_orbit_intersection": ".00749063",
        "jupiter_tisserand_invariant": "4.092",
        "epoch_osculation": "2456772.5",
        "eccentricity": ".5622889376166876",
        "semi_major_axis": "1.641444123815453",
        "inclination": "7.20295114200309",
        "ascending_node_longitude": "218.6192143028737",
        "orbital_period": "768.1350496179554",
        "perihelion_distance": ".7184782512781073",
        "perihelion_argument": "260.1266339492648",
        "aphelion_distance": "2.564409996352799",
        "perihelion_time": "2456702.207463893494",
        "mean_anomaly": "32.9438332633411",
        "mean_motion": ".4686675867466951",
        "equinox": "J2000",
        "orbit_class": {
            "orbit_class_type": "APO",
            "orbit_class_description": "Near-Earth asteroid orbits which cross the Earth’s orbit similar to that of 1862 Apollo",
            "orbit_class_range": "a (semi-major axis) > 1.0 AU; q (perihelion) < 1.017 AU"
        }
    },
    "is_sentry_object": false
}